{
    "links": {
        "self": "http://www.neowsapp.com/rest/v1/neo/3404524?api_key=iIulBulltgU6a56xZRHN4H3l9WmuAYTsLGpBGhQ2"
    },
    "id": "3404524",
    "neo_reference_id": "3404524",
    "name": "(2008 EH)",
    "designation": "2008 EH",
    "nasa_jpl_url": "http://ssd.jpl.nasa.gov/sbdb.cgi?sstr=3404524",
    "absolute_magnitude_h": 22.8,
    "estimated_diameter": {
        "kilometers": {
            "estimated_diameter_min": 0.0732073989,
            "estimated_diameter_max": 0.1636967205
        },
        "meters": {
            "estimated_diameter_min": 73.2073989347,
            "estimated_diameter_max": 163.696720474
        },
        "miles": {
            "estimated_diameter_min": 0.0454889547,
            "estimated_diameter_max": 0.1017163949
        },
        "feet": {
            "estimated_diameter_min": 240.181762721,
            "estimated_diameter_max": 537.0627483999
        }
    },
    "is_potentially_hazardous_asteroid": false,
    "close_approach_data": [
        {
            "close_approach_date": "1999-06-09",
            "close_approach_date_full": "1999-Jun-09 00:53",
            "epoch_date_close_approach": 928889580000,
            "relative_velocity": {
                "kilometers_per_second": "5.6433387231",
                "kilometers_per_hour": "20316.0194030407",
                "miles_per_hour": "12623.5843896283"
            },
            "miss_distance": {
                "astronomical": "1.8623526639",
                "lunar": "724.4551862571",
                "kilometers": "278603991.708265893",
                "miles": "173116492.9290716034"
            },
            "orbiting_body": "Juptr"
        },
        {
            "close_approach_date": "2008-04-15",
            "close_approach_date_full": "2008-Apr-15 03:49",
            "epoch_date_close_approach": 1208231340000,
            "relative_velocity": {
                "kilometers_per_second": "8.9604454706",
                "kilometers_per_hour": "32257.6036941557",
                "miles_per_hour": "20043.6204731825"
            },
            "miss_distance": {
                "astronomical": "0.0336347552",
                "lunar": "13.0839197728",
                "kilometers": "5031687.735891424",
                "miles": "3126545.7792286912"
            },
            "orbiting_body": "Earth"
        },
        {
            "close_approach_date": "2075-11-01",
            "close_approach_date_full": "2075-Nov-01 05:45",
            "epoch_date_close_approach": 3339812700000,
            "relative_velocity": {
                "kilometers_per_second": "16.251776142",
                "kilometers_per_hour": "58506.3941111867",
                "miles_per_hour": "36353.5980520315"
            },
            "miss_distance": {
                "astronomical": "0.0709745889",
                "lunar": "27.6091150821",
                "kilometers": "10617647.323565643",
                "miles": "6597500.1167181534"
            },
            "orbiting_body": "Mars"
        }
    ],
    "orbital_data": {
        "orbit_id": "11",
        "orbit_determination_date": "2017-04-06 09:04:11",
        "first_observation_date": "2008-03-01",
        "last_observation_date": "2008-04-03",
        "data_arc_in_days": 33,
        "observations_used": 33,
        "orbit_uncertainty": "7",
        "minimum_orbit_intersection": ".0194812",
        "jupiter_tisserand_invariant": "3.312",
        "epoch_osculation": "2459000.5",
        "eccentricity": ".5864503131241569",
        "semi_major_axis": "2.333650819295042",
        "inclination": "3.722371110541334",
        "ascending_node_longitude": "28.49869366132102",
        "orbital_period": "1302.123681665478",
        "perihelion_distance": ".9650805655970193",
        "perihelion_argument": "186.0455623061419",
        "aphelion_distance": "3.702221072993064",
        "perihelion_time": "2458484.725905324743",
        "mean_anomaly": "142.5968029746611",
        "mean_motion": ".2764714328361981",
        "equinox": "J2000",
        "orbit_class": {
            "orbit_class_type": "APO",
            "orbit_class_description": "Near-Earth asteroid orbits which cross the Earth’s orbit similar to that of 1862 Apollo",
            "orbit_class_range": "a (semi-major axis) > 1.0 AU; q (perihelion) < 1.017 AU"
        }
    },
    "is_sentry_object": false
}